STARLINK-5167           
1 54058U 22136H   26188.31804347 -.00000202  00000+0  54071-5 0  9997
2 54058  53.1597 166.8796 0001211  88.7628 271.3502 15.08826805204909
STARLINK-5173           
1 54059U 22136J   26188.50003471  .00023717  00000+0  14142-2 0  9995
2 54059  53.1583 166.0952 0002204  86.0854 166.4379 15.11065821  5885
STARLINK-5169           
1 54060U 22136K   26188.28027110 -.00003526  00000+0 -20353-3 0  9998
2 54060  53.1599 136.6984 0001371  92.4045 267.7103 15.08845319205324
STARLINK-5209           
1 54061U 22136L   26188.47711242  .00057739  00000+0  35720-2 0  9992
2 54061  53.1597 130.7617 0001555 128.4582 231.6549 15.09290445205421
STARLINK-5170           
1 54062U 22136M   26188.31435819 -.00004491  00000+0 -26428-3 0  9994
2 54062  53.1596 166.8548 0001341  98.1597 261.9546 15.08835153204901
STARLINK-5172           
1 54064U 22136P   26187.21479344 -.00001906  00000+0 -53743-4 0  9994
2 54064  53.1606 125.0561 0001326  98.1974 261.9177 15.29343495205399
STARLINK-5187           
1 54065U 22136Q   26187.17722041 -.00000670  00000+0 -24037-4 0  9996
2 54065  53.1592 171.8511 0001161  78.0128 282.0994 15.08825434204736
STARLINK-5151           
1 54066U 22136R   26188.33172703  .00000152  00000+0  28136-4 0  9997
2 54066  53.1927 167.1420 0001284  81.5663 278.5474 15.08010589204904
STARLINK-5174           
1 54067U 22136S   26188.36217846 -.00001249  00000+0 -60391-4 0  9998
2 54067  53.1595 166.4458 0001216  87.2644 272.8487 15.08827072204911
STARLINK-5222           
1 54068U 22136T   26187.96842166 -.00001081  00000+0 -49830-4 0  9992
2 54068  53.1591 168.2547 0001161  84.3946 275.7177 15.08823683204854
STARLINK-5181           
1 54070U 22136V   26188.42104346 -.00000314  00000+0 -16476-5 0  9997
2 54070  53.1581 166.1049 0001271  61.5025 298.6094 15.08830508204921
STARLINK-5168           
1 54071U 22136W   26188.35112319 -.00000553  00000+0 -16647-4 0  9993
2 54071  53.1583 166.3805 0001468  66.5809 293.5336 15.08828114204911
STARLINK-5146           
1 54073U 22136Y   26188.34974093 -.00001094  00000+0 -50691-4 0  9997
2 54073  53.1593 161.3887 0001318  75.2101 284.9036 15.08829404204986
STARLINK-5192           
1 54074U 22136Z   26188.41367598 -.00000439  00000+0 -95137-5 0  9999
2 54074  53.1592 166.0579 0001455  73.0973 287.0178 15.08830814204923
STARLINK-5212           
1 54075U 22136AA  26188.50003471 -.00019014  00000+0 -60220-3 0  9999
2 54075  53.1602 158.1708 0001268  81.5102 243.0869 15.31716197  5686
STARLINK-5201           
1 54076U 22136AB  26188.33743127 -.00000705  00000+0 -26191-4 0  9997
2 54076  53.1594 166.9870 0001338  67.9061 292.2072 15.08826007204908
STARLINK-5171           
1 54077U 22136AC  26188.29377056 -.00003640  00000+0 -21068-3 0  9995
2 54077  53.1600 142.6158 0001425  98.6716 261.4436 15.08845619205242
STARLINK-5175           
1 54079U 22136AE  26188.33738397 -.00000537  00000+0 -15656-4 0  9990
2 54079  53.1586 157.0097 0001209  76.0764 284.0362 15.08829900205044
STARLINK-5210           
1 54082U 22136AH  26188.39994285 -.00000641  00000+0 -22172-4 0  9997
2 54082  53.1590 156.6873 0001562  79.5606 280.5561 15.08829594205057
STARLINK-5178           
1 54083U 22136AJ  26188.32264694 -.00000578  00000+0 -18253-4 0  9999
2 54083  53.1594 156.9162 0001350  76.8113 283.3029 15.08829685205044
STARLINK-5183           
1 54084U 22136AK  26188.33001550  .00000556  00000+0  53025-4 0  9991
2 54084  53.1592 156.9617 0001388  76.6734 283.4413 15.08838855205043
STARLINK-5166           
1 54085U 22136AL  26188.31992919 -.00000308  00000+0 -12209-5 0  9995
2 54085  53.1598 156.9005 0001754  73.3218 286.7965 15.08818454205040
STARLINK-5211           
1 54086U 22136AM  26188.32220115 -.00001169  00000+0 -55359-4 0  9997
2 54086  53.1600 141.9539 0001301  86.5990 273.5150 15.08825352205250
STARLINK-5184           
1 54087U 22136AN  26188.34836019 -.00000582  00000+0 -18472-4 0  9999
2 54087  53.1598 156.3746 0001412  96.7800 263.3352 15.08830629205055
STARLINK-5153           
1 54088U 22136AP  26188.32633021  .00000672  00000+0  60361-4 0  9998
2 54088  53.1588 156.9386 0001562  84.8871 275.2298 15.08817988205046
STARLINK-5143           
1 54089U 22136AQ  26188.30421701  .00000872  00000+0  72835-4 0  9998
2 54089  53.1602 156.8048 0001006  85.6855 274.4251 15.08839932205045
STARLINK-5177           
1 54090U 22136AR  26187.31431894  .00000967  00000+0  78824-4 0  9993
2 54090  53.1599 161.2905 0001264  74.1177 285.9953 15.08832312204893
STARLINK-5221           
1 54091U 22136AS  26188.27843766 -.00000768  00000+0 -30163-4 0  9990
2 54091  53.1596 156.6473 0001279  73.7787 286.3345 15.08826128205043
STARLINK-5190           
1 54092U 22136AT  26188.50003471  .00117326  16065-4  39960-3 0  9991
2 54092  53.1690 297.6255 0006081 337.9294 294.6687 15.89672189  6008
STARLINK-5213           
1 54093U 22136AU  26188.29318125 -.00000094  00000+0  12219-4 0  9993
2 54093  53.1609 156.7313 0001141  87.2380 272.8742 15.08814594205046
