OBJECT_NAME,OBJECT_ID,EPOCH,MEAN_MOTION,ECCENTRICITY,INCLINATION,RA_OF_ASC_NODE,ARG_OF_PERICENTER,MEAN_ANOMALY,EPHEMERIS_TYPE,CLASSIFICATION_TYPE,NORAD_CAT_ID,ELEMENT_SET_NO,REV_AT_EPOCH,BSTAR,MEAN_MOTION_DOT,MEAN_MOTION_DDOT
STARLINK-5167,2022-136H,2026-07-07T07:37:58.955808,15.08826805,.0001211,53.1597,166.8796,88.7628,271.3502,0,U,54058,999,20490,.54071E-5,-.202E-5,0
STARLINK-5173,2022-136J,2026-07-07T12:00:02.998944,15.11065821,.0002204,53.1583,166.0952,86.0854,166.4379,0,U,54059,999,588,.14142E-2,.23717E-3,0
STARLINK-5169,2022-136K,2026-07-07T06:43:35.423040,15.08845319,.0001371,53.1599,136.6984,92.4045,267.7103,0,U,54060,999,20532,-.20353E-3,-.3526E-4,0
STARLINK-5209,2022-136L,2026-07-07T11:27:02.513088,15.09290445,.0001555,53.1597,130.7617,128.4582,231.6549,0,U,54061,999,20542,.3572E-2,.57739E-3,0
STARLINK-5170,2022-136M,2026-07-07T07:32:40.547616,15.08835153,.0001341,53.1596,166.8548,98.1597,261.9546,0,U,54062,999,20490,-.26428E-3,-.4491E-4,0
STARLINK-5172,2022-136P,2026-07-06T05:09:18.153216,15.29343495,.0001326,53.1606,125.0561,98.1974,261.9177,0,U,54064,999,20539,-.5374341E-4,-.1906E-4,0
STARLINK-5187,2022-136Q,2026-07-06T04:15:11.843424,15.08825434,.00011613,53.1592,171.8511,78.0128,282.0994,0,U,54065,999,20473,-.24037461E-4,-.67E-5,0
STARLINK-5151,2022-136R,2026-07-07T07:57:41.215392,15.08010589,.0001284,53.1927,167.1420,81.5663,278.5474,0,U,54066,999,20490,.28136E-4,.152E-5,0
STARLINK-5174,2022-136S,2026-07-07T08:41:32.218944,15.08827072,.0001216,53.1595,166.4458,87.2644,272.8487,0,U,54067,999,20491,-.60391E-4,-.1249E-4,0
STARLINK-5222,2022-136T,2026-07-06T23:14:31.631424,15.08823683,.0001161,53.1591,168.2547,84.3946,275.7177,0,U,54068,999,20485,-.4983E-4,-.1081E-4,0
STARLINK-5181,2022-136V,2026-07-07T10:06:18.154944,15.08830508,.0001271,53.1581,166.1049,61.5025,298.6094,0,U,54070,999,20492,-.16476E-5,-.314E-5,0
STARLINK-5168,2022-136W,2026-07-07T08:25:37.043616,15.08828114,.0001468,53.1583,166.3805,66.5809,293.5336,0,U,54071,999,20491,-.16647E-4,-.553E-5,0
STARLINK-5146,2022-136Y,2026-07-07T08:23:37.616352,15.08829404,.0001318,53.1593,161.3887,75.2101,284.9036,0,U,54073,999,20498,-.50691E-4,-.1094E-4,0
STARLINK-5192,2022-136Z,2026-07-07T09:55:41.604672,15.08830814,.0001455,53.1592,166.0579,73.0973,287.0178,0,U,54074,999,20492,-.95137E-5,-.439E-5,0
STARLINK-5212,2022-136AA,2026-07-07T12:00:02.998944,15.31716197,.0001268,53.1602,158.1708,81.5102,243.0869,0,U,54075,999,568,-.6022E-3,-.19014E-3,0
STARLINK-5201,2022-136AB,2026-07-07T08:05:54.061728,15.08826007,.0001338,53.1594,166.9870,67.9061,292.2072,0,U,54076,999,20490,-.26191E-4,-.705E-5,0
STARLINK-5171,2022-136AC,2026-07-07T07:03:01.776384,15.08845619,.0001425,53.1600,142.6158,98.6716,261.4436,0,U,54077,999,20524,-.21068E-3,-.364E-4,0
STARLINK-5175,2022-136AE,2026-07-07T08:05:49.975008,15.08829900,.0001209,53.1586,157.0097,76.0764,284.0362,0,U,54079,999,20504,-.15656E-4,-.537E-5,0
STARLINK-5210,2022-136AH,2026-07-07T09:35:55.062240,15.08829594,.0001562,53.1590,156.6873,79.5606,280.5561,0,U,54082,999,20505,-.22172E-4,-.641E-5,0
STARLINK-5178,2022-136AJ,2026-07-07T07:44:36.695616,15.08829685,.000135,53.1594,156.9162,76.8113,283.3029,0,U,54083,999,20504,-.18253E-4,-.578E-5,0
STARLINK-5183,2022-136AK,2026-07-07T07:55:13.339200,15.08838855,.0001388,53.1592,156.9617,76.6734,283.4413,0,U,54084,999,20504,.53025E-4,.556E-5,0
STARLINK-5166,2022-136AL,2026-07-07T07:40:41.882016,15.08818454,.0001754,53.1598,156.9005,73.3218,286.7965,0,U,54085,999,20504,-.12209E-5,-.308E-5,0
STARLINK-5211,2022-136AM,2026-07-07T07:43:58.179360,15.08825352,.0001301,53.1600,141.9539,86.5990,273.5150,0,U,54086,999,20525,-.55359E-4,-.1169E-4,0
STARLINK-5184,2022-136AN,2026-07-07T08:21:38.320416,15.08830629,.0001412,53.1598,156.3746,96.7800,263.3352,0,U,54087,999,20505,-.18472E-4,-.582E-5,0
STARLINK-5153,2022-136AP,2026-07-07T07:49:54.930144,15.08817988,.0001562,53.1588,156.9386,84.8871,275.2298,0,U,54088,999,20504,.60361E-4,.672E-5,0
STARLINK-5143,2022-136AQ,2026-07-07T07:18:04.349664,15.08839932,.0001006,53.1602,156.8048,85.6855,274.4251,0,U,54089,999,20504,.72835E-4,.872E-5,0
STARLINK-5177,2022-136AR,2026-07-06T07:32:37.156416,15.08832312,.00012641,53.1599,161.2905,74.1177,285.9953,0,U,54090,999,20489,.78823981E-4,.967E-5,0
STARLINK-5221,2022-136AS,2026-07-07T06:40:57.013824,15.08826128,.0001279,53.1596,156.6473,73.7787,286.3345,0,U,54091,999,20504,-.30163E-4,-.768E-5,0
STARLINK-5190,2022-136AT,2026-07-07T12:00:02.998944,15.89672189,.0006081,53.1690,297.6255,337.9294,294.6687,0,U,54092,999,600,.3996E-3,.117326E-2,.16065E-4
STARLINK-5213,2022-136AU,2026-07-07T07:02:10.860000,15.08814594,.0001141,53.1609,156.7313,87.2380,272.8742,0,U,54093,999,20504,.12219E-4,-.94E-6,0
